[{"OBJECT_NAME":"STARLINK-30960","OBJECT_ID":"2023-183V","EPOCH":"2026-03-09T22:00:01.999584","MEAN_MOTION":15.71845093,"ECCENTRICITY":0.00290225,"INCLINATION":42.9869,"RA_OF_ASC_NODE":306.2273,"ARG_OF_PERICENTER":250.1506,"MEAN_ANOMALY":28.4078,"EPHEMERIS_TYPE":0,"CLASSIFICATION_TYPE":"U","NORAD_CAT_ID":58456,"ELEMENT_SET_NO":999,"REV_AT_EPOCH":592,"BSTAR":0.0060496308,"MEAN_MOTION_DOT":0.00921154,"MEAN_MOTION_DDOT":0},{"OBJECT_NAME":"STARLINK-36394","OBJECT_ID":"2026-016F","EPOCH":"2026-03-09T17:11:11.874624","MEAN_MOTION":15.75240486,"ECCENTRICITY":0.00013847,"INCLINATION":97.2853,"RA_OF_ASC_NODE":129.1435,"ARG_OF_PERICENTER":80.6821,"MEAN_ANOMALY":279.4601,"EPHEMERIS_TYPE":0,"CLASSIFICATION_TYPE":"U","NORAD_CAT_ID":67566,"ELEMENT_SET_NO":999,"REV_AT_EPOCH":680,"BSTAR":0.0013747673,"MEAN_MOTION_DOT":0.00210519,"MEAN_MOTION_DDOT":0}]
